{"type": "FeatureCollection", "features": [{"type": "Feature", "properties": {"norad_id": 24876, "name": "GPS BIIR-2  (PRN 13)", "group": "gnss", "lat": 14.951553519206332, "lon": 116.07696489161378, "alt_km": 19979.309865290605, "timestamp": "2025-12-17T17:50:19.492485+00:00", "meta": {"OBJECT_NAME": "GPS BIIR-2  (PRN 13)", "OBJECT_ID": "1997-035A", "EPOCH": "2025-12-16T17:18:41.060448", "MEAN_MOTION": 2.00563709, "ECCENTRICITY": 0.00967839, "INCLINATION": 55.8971, "RA_OF_ASC_NODE": 105.7131, "ARG_OF_PERICENTER": 56.9876, "MEAN_ANOMALY": 303.9087, "EPHEMERIS_TYPE": 0, "CLASSIFICATION_TYPE": "U", "NORAD_CAT_ID": 24876, "ELEMENT_SET_NO": 999, "REV_AT_EPOCH": 20829, "BSTAR": 0, "MEAN_MOTION_DOT": -2.3e-07, "MEAN_MOTION_DDOT": 0}, "tle": {"line1": "1 24876U 97035A   25350.72130857 -.00000023  00000+0  00000+0 0  9993", "line2": "2 24876  55.8971 105.7131 0096783  56.9876 303.9087  2.00563709208299"}}, "geometry": {"type": "Point", "coordinates": [116.07696489161378, 14.951553519206332]}}, {"type": "Feature", "properties": {"norad_id": 26360, "name": "GPS BIIR-4  (PRN 20)", "group": "gnss", "lat": 50.163952452445926, "lon": 149.72963962857386, "alt_km": 20244.912092140832, "timestamp": "2025-12-17T17:50:19.492539+00:00", "meta": {"OBJECT_NAME": "GPS BIIR-4  (PRN 20)", "OBJECT_ID": "2000-025A", "EPOCH": "2025-12-16T19:52:20.548704", "MEAN_MOTION": 2.00567475, "ECCENTRICITY": 0.00388903, "INCLINATION": 55.0476, "RA_OF_ASC_NODE": 26.6725, "ARG_OF_PERICENTER": 242.3816, "MEAN_ANOMALY": 287.5593, "EPHEMERIS_TYPE": 0, "CLASSIFICATION_TYPE": "U", "NORAD_CAT_ID": 26360, "ELEMENT_SET_NO": 999, "REV_AT_EPOCH": 18761, "BSTAR": 0, "MEAN_MOTION_DOT": -8.3e-07, "MEAN_MOTION_DDOT": 0}, "tle": {"line1": "1 26360U 00025A   25350.82801561 -.00000083  00000+0  00000+0 0  9990", "line2": "2 26360  55.0476  26.6725 0038890 242.3816 287.5593  2.00567475187616"}}, "geometry": {"type": "Point", "coordinates": [149.72963962857386, 50.163952452445926]}}, {"type": "Feature", "properties": {"norad_id": 26407, "name": "GPS BIIR-5  (PRN 22)", "group": "gnss", "lat": -38.408749381643595, "lon": -171.49743762193765, "alt_km": 19856.561359727828, "timestamp": "2025-12-17T17:50:19.492560+00:00", "meta": {"OBJECT_NAME": "GPS BIIR-5  (PRN 22)", "OBJECT_ID": "2000-040A", "EPOCH": "2025-12-16T19:48:16.745184", "MEAN_MOTION": 2.00568089, "ECCENTRICITY": 0.01257985, "INCLINATION": 54.8898, "RA_OF_ASC_NODE": 222.4065, "ARG_OF_PERICENTER": 301.879, "MEAN_ANOMALY": 65.6542, "EPHEMERIS_TYPE": 0, "CLASSIFICATION_TYPE": "U", "NORAD_CAT_ID": 26407, "ELEMENT_SET_NO": 999, "REV_AT_EPOCH": 18629, "BSTAR": 0, "MEAN_MOTION_DOT": 6.6e-07, "MEAN_MOTION_DDOT": 0}, "tle": {"line1": "1 26407U 00040A   25350.82519381  .00000066  00000+0  00000+0 0  9995", "line2": "2 26407  54.8898 222.4065 0125798 301.8790  65.6542  2.00568089186296"}}, "geometry": {"type": "Point", "coordinates": [-171.49743762193765, -38.408749381643595]}}, {"type": "Feature", "properties": {"norad_id": 27663, "name": "GPS BIIR-8  (PRN 16)", "group": "gnss", "lat": 54.83144213965922, "lon": -52.51473195328251, "alt_km": 19853.53201627403, "timestamp": "2025-12-17T17:50:19.492575+00:00", "meta": {"OBJECT_NAME": "GPS BIIR-8  (PRN 16)", "OBJECT_ID": "2003-005A", "EPOCH": "2025-12-16T09:06:39.754656", "MEAN_MOTION": 2.00570777, "ECCENTRICITY": 0.01475932, "INCLINATION": 54.9225, "RA_OF_ASC_NODE": 222.2335, "ARG_OF_PERICENTER": 51.8511, "MEAN_ANOMALY": 129.8718, "EPHEMERIS_TYPE": 0, "CLASSIFICATION_TYPE": "U", "NORAD_CAT_ID": 27663, "ELEMENT_SET_NO": 999, "REV_AT_EPOCH": 16764, "BSTAR": 0, "MEAN_MOTION_DOT": 6.3e-07, "MEAN_MOTION_DDOT": 0}, "tle": {"line1": "1 27663U 03005A   25350.37962679  .00000063  00000+0  00000+0 0  9993", "line2": "2 27663  54.9225 222.2335 0147593  51.8511 129.8718  2.00570777167647"}}, "geometry": {"type": "Point", "coordinates": [-52.51473195328251, 54.83144213965922]}}, {"type": "Feature", "properties": {"norad_id": 28190, "name": "GPS BIIR-11 (PRN 19)", "group": "gnss", "lat": -48.53426245392207, "lon": 155.40499346162733, "alt_km": 20127.207440514205, "timestamp": "2025-12-17T17:50:19.492589+00:00", "meta": {"OBJECT_NAME": "GPS BIIR-11 (PRN 19)", "OBJECT_ID": "2004-009A", "EPOCH": "2025-12-14T15:49:47.343936", "MEAN_MOTION": 2.00560762, "ECCENTRICITY": 0.01083648, "INCLINATION": 54.9839, "RA_OF_ASC_NODE": 283.1415, "ARG_OF_PERICENTER": 167.6892, "MEAN_ANOMALY": 10.6801, "EPHEMERIS_TYPE": 0, "CLASSIFICATION_TYPE": "U", "NORAD_CAT_ID": 28190, "ELEMENT_SET_NO": 999, "REV_AT_EPOCH": 15924, "BSTAR": 0, "MEAN_MOTION_DOT": -7.9e-07, "MEAN_MOTION_DDOT": 0}, "tle": {"line1": "1 28190U 04009A   25348.65957574 -.00000079  00000+0  00000+0 0  9998", "line2": "2 28190  54.9839 283.1415 0108364 167.6892  10.6801  2.00560762159240"}}, "geometry": {"type": "Point", "coordinates": [155.40499346162733, -48.53426245392207]}}, {"type": "Feature", "properties": {"norad_id": 28474, "name": "GPS BIIR-13 (PRN 02)", "group": "gnss", "lat": -42.256920379674256, "lon": -66.92349468351868, "alt_km": 19733.407516717536, "timestamp": "2025-12-17T17:50:19.492602+00:00", "meta": {"OBJECT_NAME": "GPS BIIR-13 (PRN 02)", "OBJECT_ID": "2004-045A", "EPOCH": "2025-12-17T07:31:38.616960", "MEAN_MOTION": 2.00569835, "ECCENTRICITY": 0.01708534, "INCLINATION": 55.2384, "RA_OF_ASC_NODE": 332.2217, "ARG_OF_PERICENTER": 309.4512, "MEAN_ANOMALY": 45.5013, "EPHEMERIS_TYPE": 0, "CLASSIFICATION_TYPE": "U", "NORAD_CAT_ID": 28474, "ELEMENT_SET_NO": 999, "REV_AT_EPOCH": 15477, "BSTAR": 0, "MEAN_MOTION_DOT": -8.9e-07, "MEAN_MOTION_DDOT": 0}, "tle": {"line1": "1 28474U 04045A   25351.31364140 -.00000089  00000+0  00000+0 0  9992", "line2": "2 28474  55.2384 332.2217 0170853 309.4512  45.5013  2.00569835154772"}}, "geometry": {"type": "Point", "coordinates": [-66.92349468351868, -42.256920379674256]}}, {"type": "Feature", "properties": {"norad_id": 28874, "name": "GPS BIIRM-1 (PRN 17)", "group": "gnss", "lat": -54.525300697420874, "lon": 179.23464321260624, "alt_km": 19883.630617973467, "timestamp": "2025-12-17T17:50:19.492615+00:00", "meta": {"OBJECT_NAME": "GPS BIIRM-1 (PRN 17)", "OBJECT_ID": "2005-038A", "EPOCH": "2025-12-15T21:22:37.236864", "MEAN_MOTION": 2.00578274, "ECCENTRICITY": 0.01315557, "INCLINATION": 55.0291, "RA_OF_ASC_NODE": 280.574, "ARG_OF_PERICENTER": 293.6034, "MEAN_ANOMALY": 72.8859, "EPHEMERIS_TYPE": 0, "CLASSIFICATION_TYPE": "U", "NORAD_CAT_ID": 28874, "ELEMENT_SET_NO": 999, "REV_AT_EPOCH": 14816, "BSTAR": 0, "MEAN_MOTION_DOT": -6.8e-07, "MEAN_MOTION_DDOT": 0}, "tle": {"line1": "1 28874U 05038A   25349.89070876 -.00000068  00000+0  00000+0 0  9996", "line2": "2 28874  55.0291 280.5740 0131555 293.6034  72.8859  2.00578274148160"}}, "geometry": {"type": "Point", "coordinates": [179.23464321260624, -54.525300697420874]}}, {"type": "Feature", "properties": {"norad_id": 28899, "name": "INMARSAT 4-F2 (SOUTHPAN/PRN 122)", "group": "gnss", "lat": 4.85962098036932, "lon": 137.68569511188153, "alt_km": 35792.579008160166, "timestamp": "2025-12-17T17:50:19.492630+00:00", "meta": {"OBJECT_NAME": "INMARSAT 4-F2 (SOUTHPAN/PRN 122)", "OBJECT_ID": "2005-044A", "EPOCH": "2025-12-16T22:36:03.528864", "MEAN_MOTION": 1.00271378, "ECCENTRICITY": 0.00025154, "INCLINATION": 4.8571, "RA_OF_ASC_NODE": 43.6989, "ARG_OF_PERICENTER": 224.632, "MEAN_ANOMALY": 300.0135, "EPHEMERIS_TYPE": 0, "CLASSIFICATION_TYPE": "U", "NORAD_CAT_ID": 28899, "ELEMENT_SET_NO": 999, "REV_AT_EPOCH": 7369, "BSTAR": 0, "MEAN_MOTION_DOT": -2.41e-06, "MEAN_MOTION_DDOT": 0}, "tle": {"line1": "1 28899U 05044A   25350.94170751 -.00000241  00000+0  00000+0 0  9994", "line2": "2 28899   4.8571  43.6989 0002515 224.6320 300.0135  1.00271378 73690"}}, "geometry": {"type": "Point", "coordinates": [137.68569511188153, 4.85962098036932]}}, {"type": "Feature", "properties": {"norad_id": 29486, "name": "GPS BIIRM-2 (PRN 31)", "group": "gnss", "lat": 9.683108738942186, "lon": -28.414648603981437, "alt_km": 20304.378944833203, "timestamp": "2025-12-17T17:50:19.492643+00:00", "meta": {"OBJECT_NAME": "GPS BIIRM-2 (PRN 31)", "OBJECT_ID": "2006-042A", "EPOCH": "2025-12-16T18:24:54.505728", "MEAN_MOTION": 2.00554045, "ECCENTRICITY": 0.01073341, "INCLINATION": 54.6946, "RA_OF_ASC_NODE": 158.5809, "ARG_OF_PERICENTER": 52.0567, "MEAN_ANOMALY": 130.2096, "EPHEMERIS_TYPE": 0, "CLASSIFICATION_TYPE": "U", "NORAD_CAT_ID": 29486, "ELEMENT_SET_NO": 999, "REV_AT_EPOCH": 14073, "BSTAR": 0, "MEAN_MOTION_DOT": 8.7e-07, "MEAN_MOTION_DDOT": 0}, "tle": {"line1": "1 29486U 06042A   25350.76729752  .00000087  00000+0  00000+0 0  9994", "line2": "2 29486  54.6946 158.5809 0107334  52.0567 130.2096  2.00554045140735"}}, "geometry": {"type": "Point", "coordinates": [-28.414648603981437, 9.683108738942186]}}, {"type": "Feature", "properties": {"norad_id": 29601, "name": "GPS BIIRM-3 (PRN 12)", "group": "gnss", "lat": -35.791123190014694, "lon": 71.5697597310448, "alt_km": 20358.266987778024, "timestamp": "2025-12-17T17:50:19.492656+00:00", "meta": {"OBJECT_NAME": "GPS BIIRM-3 (PRN 12)", "OBJECT_ID": "2006-052A", "EPOCH": "2025-12-15T22:30:08.867232", "MEAN_MOTION": 2.00573827, "ECCENTRICITY": 0.00878265, "INCLINATION": 54.9699, "RA_OF_ASC_NODE": 221.2713, "ARG_OF_PERICENTER": 87.4673, "MEAN_ANOMALY": 273.6251, "EPHEMERIS_TYPE": 0, "CLASSIFICATION_TYPE": "U", "NORAD_CAT_ID": 29601, "ELEMENT_SET_NO": 999, "REV_AT_EPOCH": 13973, "BSTAR": 0, "MEAN_MOTION_DOT": 6e-07, "MEAN_MOTION_DDOT": 0}, "tle": {"line1": "1 29601U 06052A   25349.93760263  .00000060  00000+0  00000+0 0  9994", "line2": "2 29601  54.9699 221.2713 0087826  87.4673 273.6251  2.00573827139739"}}, "geometry": {"type": "Point", "coordinates": [71.5697597310448, -35.791123190014694]}}]}